COSMOS 2425 (716)       
1 29670U 06062A   17312.18036453  .00000008  00000-0  10000-3 0  9994
2 29670  65.3907 300.0041 0021222 337.7507 103.6384  2.13105058 84603
COSMOS 2426 (717)       
1 29671U 06062B   17312.03247970  .00000007  00000-0  10000-3 0  9996
2 29671  65.4087 300.1022 0017950 174.4793  10.7451  2.13103110 84600
COSMOS 2433 (720)       
1 32275U 07052A   17312.07858436 -.00000018  00000-0  10000-3 0  9992
2 32275  65.5830  60.7903 0002269 220.8428 334.3409  2.13104834 78117
COSMOS 2432 (719)       
1 32276U 07052B   17312.06982512 -.00000018  00000-0  10000-3 0  9995
2 32276  65.5951  60.8641 0009524 336.4927 164.5069  2.13103999 78117
COSMOS 2434 (721)       
1 32393U 07065A   17311.28249645  .00000005  00000-0  00000-0 0  9996
2 32393  65.0068 299.1148 0002573 158.7460  34.6078  2.13102997 76802
COSMOS 2436 (723)       
1 32395U 07065C   17311.68385006  .00000006  00000-0  10000-3 0  9999
2 32395  65.0164 299.1501 0014294 349.0223 201.6423  2.13104372 76741
COSMOS 2456 (730)       
1 36111U 09070A   17311.68096396  .00000048  00000-0  00000+0 0  9999
2 36111  64.1791 178.6723 0003653 331.3488 339.2963  2.13103014 61471
COSMOS 2457 (733)       
1 36112U 09070B   17311.24655273  .00000054  00000-0  00000-0 0  9995
2 36112  64.1608 178.6026 0006422 156.7464 308.5542  2.13101793 61479
COSMOS 2458 (734)       
1 36113U 09070C   17312.11932597  .00000044  00000-0  10000-3 0  9993
2 36113  64.1637 178.5823 0002278  40.5814  62.3714  2.13101966 61490
COSMOS 2459 (731)       
1 36400U 10007A   17311.44768307 -.00000018  00000-0  10000-3 0  9997
2 36400  65.4907  59.8996 0025564 353.9936 298.0298  2.13102221 59828
COSMOS 2461 (735)       
1 36401U 10007B   17312.00894438 -.00000020  00000-0  10000-3 0  9999
2 36401  65.4835  59.8577 0007201  80.6914 192.5237  2.13102161 59837
COSMOS 2460 (732)       
1 36402U 10007C   17311.47145492 -.00000018  00000-0  10000-3 0  9996
2 36402  65.4749  59.8469 0001582 135.2502 126.6397  2.13101809 59820
COSMOS 2464 (736)       
1 37139U 10041C   17311.35166586  .00000004  00000-0  00000+0 0  9995
2 37139  64.6118 299.0291 0022056   5.5920 108.5694  2.13102791 55895
COSMOS 2471 (701K)      
1 37372U 11009A   17311.80305394 -.00000019  00000-0  00000+0 0  9998
2 37372  65.4726  59.7825 0008275 224.2250  71.2569  2.13107741 52103
COSMOS 2474 (742)       
1 37829U 11055A   17311.33811863  .00000052  00000-0  00000-0 0  9994
2 37829  64.5031 179.3076 0007223 245.3849  21.3784  2.13101981 47464
COSMOS 2476 (744)       
1 37867U 11064A   17312.21918939  .00000042  00000-0  00000+0 0  9994
2 37867  64.4841 179.3462 0016755 241.0054  27.6586  2.13102007 46833
COSMOS 2477 (745)       
1 37868U 11064B   17311.42077453  .00000051  00000-0  00000-0 0  9995
2 37868  64.4907 179.4194 0014607 242.3163 312.8896  2.13101926 46774
COSMOS 2475 (743)       
1 37869U 11064C   17311.78286969  .00000047  00000-0  00000+0 0  9993
2 37869  64.4993 179.3994 0019022 270.2456 159.2932  2.13102248 46792
COSMOS 2485 (747)       
1 39155U 13019A   17311.97144571  .00000045  00000-0  00000+0 0  9996
2 39155  64.6528 179.4150 0017206 235.3754 248.2126  2.13102065 35304
COSMOS 2492 (754)       
1 39620U 14012A   17312.13766865 -.00000020  00000-0  10000-3 0  9991
2 39620  65.3662  59.7407 0012917 331.1705 314.3625  2.13103465 28258
COSMOS 2500 (755)       
1 40001U 14032A   17311.42795160 -.00000019  00000-0  00000+0 0  9992
2 40001  65.3053  59.7504 0006951 194.5862 129.2255  2.13102812 26458
COSMOS 2501 (702K)      
1 40315U 14075A   17312.13073478  .00000005  00000-0  00000+0 0  9991
2 40315  64.3371 300.2934 0016833 213.1777  94.0258  2.13098645 22874
COSMOS 2514 (751)       
1 41330U 16008A   17312.13360109 -.00000021  00000-0  00000+0 0  9996
2 41330  65.1063  59.8351 0009920 207.1196 118.3979  2.13103422 13630
COSMOS 2516 (753)       
1 41554U 16032A   17311.43267845  .00000004  00000-0  00000+0 0  9996
2 41554  64.5574 300.1212 0014498 226.2428 173.4449  2.13101749 11230
COSMOS 2522 (752)       
1 42939U 17055A   17312.16234976  .00000006  00000-0  00000+0 0  9992
2 42939  64.7872 299.9979 0010258 250.4550 215.3694  2.13101943  1009
